ONEWEB-0220             
1 48232U 21031Y   23331.42530544 -.00004440  00000+0 -12013-1 0  9996
2 48232  87.8958 115.3870 0002096 102.5543 257.5821 13.14523459125867
ONEWEB-0165             
1 48233U 21031Z   23331.45384366 -.00000279  00000+0 -78676-3 0  9994
2 48233  87.8951 115.3904 0001754 104.9421 255.1903 13.14503226125821
ONEWEB-0199             
1 48234U 21031AA  23331.43800753 -.00000184  00000+0 -53163-3 0  9995
2 48234  87.8951 115.3654 0001677  97.9750 262.1570 13.14505162125722
ONEWEB-0203             
1 48235U 21031AB  23331.42847202 -.00000209  00000+0 -59812-3 0  9990
2 48235  87.8951 115.3675 0001199  95.3373 264.7893 13.14502029125734
ONEWEB-0197             
1 48236U 21031AC  23331.48034013 -.00018634  00000+0 -49396-1 0  9990
2 48236  87.8955 115.3598 0001772  73.9530 286.1796 13.15874443125651
ONEWEB-0194             
1 48237U 21031AD  23331.61085062  .00000194  00000+0  48849-3 0  9990
2 48237  87.8952 115.3284 0001119  93.7799 266.3459 13.14502078125841
ONEWEB-0193             
1 48238U 21031AE  23331.47446073  .00000111  00000+0  26356-3 0  9996
2 48238  87.8951 115.3641 0001680 107.9279 252.2034 13.14506776125776
ONEWEB-0191             
1 48239U 21031AF  23331.40945587  .00000139  00000+0  34068-3 0  9993
2 48239  87.8966 115.3631 0001431 100.8828 259.2463 13.14505060125620
